COSMOS 2426 (717)       
1 29671U 06062B   20137.60384520 -.00000038  00000-0  10000-3 0  9996
2 29671  64.9801 268.9873 0020056 171.5955 139.5888  2.12962369104214
COSMOS 2433 (720)       
1 32275U 07052A   20137.17650885 -.00000091  00000-0  10000-3 0  9991
2 32275  65.9715  29.9954 0002342 286.0247 180.6026  2.13104232 97728
COSMOS 2432 (719)       
1 32276U 07052B   20137.33842258 -.00000091  00000-0  10000-3 0  9997
2 32276  65.9838  30.0791 0011574 334.1010 207.0143  2.13103697 97725
COSMOS 2434 (721)       
1 32393U 07065A   20137.28369512 -.00000038  00000-0  00000-0 0  9999
2 32393  64.5855 267.5212 0004409 104.5667 331.8494  2.13103069 96435
COSMOS 2436 (723)       
1 32395U 07065C   20137.47714074 -.00000039  00000-0  10000-3 0  9994
2 32395  64.5936 267.5636 0014054   6.1696 354.9031  2.13103016 96371
COSMOS 2456 (730)       
1 36111U 09070A   20137.41253057  .00000093  00000-0  00000-0 0  9990
2 36111  64.2250 147.1890 0006330 303.6977  44.9764  2.13102862 81097
COSMOS 2457 (733)       
1 36112U 09070B   20137.32513890  .00000092  00000-0  00000-0 0  9994
2 36112  64.2077 147.0887 0004802 196.0122 209.0434  2.13101484 81107
COSMOS 2459 (731)       
1 36400U 10007A   20137.39729910 -.00000090  00000-0  10000-3 0  9998
2 36400  65.8724  28.9645 0026898 351.3916 139.9269  2.13105195 79453
COSMOS 2461 (735)       
1 36401U 10007B   20137.49720410 -.00000090  00000-0  10000-3 0  9996
2 36401  65.8673  28.9304 0008157  55.5572  60.8594  2.13102074 79454
COSMOS 2460 (732)       
1 36402U 10007C   20137.47023190 -.00000090  00000-0  10000-3 0  9996
2 36402  65.8569  28.8910 0001622  20.2830 114.6231  2.13101427 79454
COSMOS 2464 (736)       
1 37139U 10041C   20137.33150531 -.00000039  00000-0  00000-0 0  9996
2 37139  64.1865 266.9762 0026580  13.8504 323.0912  2.13100725 75514
COSMOS 2474 (742)       
1 37829U 11055A   20137.34384400  .00000093  00000-0  00000-0 0  9992
2 37829  64.5445 148.2036 0010519 249.7203 261.1547  2.13101740 67093
COSMOS 2476 (744)       
1 37867U 11064A   20137.22084402  .00000091  00000-0  00000-0 0  9998
2 37867  64.5246 148.2518 0021494 242.8004 219.9654  2.13101914 66447
COSMOS 2477 (745)       
1 37868U 11064B   20137.48365704  .00000094  00000-0  00000-0 0  9997
2 37868  64.5339 148.2996 0019113 244.4004 238.4994  2.13101740 66400
COSMOS 2475 (743)       
1 37869U 11064C   20137.39182226  .00000093  00000-0  00000-0 0  9993
2 37869  64.5402 148.3035 0023516 263.3693 106.4217  2.13101952 66411
COSMOS 2485 (747)       
1 39155U 13019A   20137.20863067  .00000092  00000-0  00000-0 0  9993
2 39155  64.6921 148.5145 0021876 238.4741 259.4979  2.13101898 54911
COSMOS 2492 (754)       
1 39620U 14012A   20137.38503123 -.00000091  00000-0  10000-3 0  9991
2 39620  65.7475  28.6800 0014578 330.3762 338.0087  2.13103229 47866
COSMOS 2500 (755)       
1 40001U 14032A   20137.29030962 -.00000091  00000-0  00000-0 0  9990
2 40001  65.6856  28.6027 0004698 211.3491 244.9975  2.13102642 46085
COSMOS 2501 (702K)      
1 40315U 14075A   20137.31315675 -.00000039  00000-0  00000-0 0  9997
2 40315  63.9037 267.9341 0015956 204.6970  64.4313  2.13098662 42485
COSMOS 2514 (751)       
1 41330U 16008A   20137.56216700 -.00000090  00000-0  00000-0 0  9996
2 41330  65.4896  28.4716 0008295 218.3911 268.8815  2.13103076 33252
COSMOS 2516 (753)       
1 41554U 16032A   20137.29239758 -.00000038  00000-0  00000-0 0  9991
2 41554  64.1256 267.9945 0011833 212.3050 318.7837  2.13101707 30851
COSMOS 2522 (752)       
1 42939U 17055A   20136.77430171 -.00000034  00000-0  00000-0 0  9995
2 42939  64.3610 268.1842 0006131 242.6777 117.5158  2.13101916 20606
COSMOS 2527 (756)       
1 43508U 18053A   20137.43446622  .00000094  00000-0  00000-0 0  9994
2 43508  64.8569 148.3465 0009234 243.5523 294.8533  2.13102598 14902
COSMOS 2529 (757)       
1 43687U 18086A   20137.43231997 -.00000038  00000-0  00000-0 0  9994
2 43687  64.5739 268.2754 0008418 273.0113 187.6092  2.13102071 11929
COSMOS 2534 (758)       
1 44299U 19030A   20137.52833255 -.00000039  00000-0  00000-0 0  9990
2 44299  64.6431 268.0829 0011693 292.6098  16.7306  2.13102035  7563
